<?xml version="1.0" encoding="UTF-8"?>
<kml xmlns="http://www.opengis.net/kml/2.2">
  <Document>
    <name>HMH-F</name>
    <description>Final production map</description>
    <Style id="icon-1634-BDBDBD-nodesc-normal">
      <IconStyle>
        <color>ffbdbdbd</color>
        <scale>1</scale>
        <Icon>
          <href>https://www.gstatic.com/mapspro/images/stock/503-wht-blank_maps.png</href>
        </Icon>
      </IconStyle>
      <LabelStyle>
        <scale>0</scale>
      </LabelStyle>
      <BalloonStyle>
        <text><![CDATA[<h3>$[name]</h3>]]></text>
      </BalloonStyle>
    </Style>
    <Style id="icon-1634-BDBDBD-nodesc-highlight">
      <IconStyle>
        <color>ffbdbdbd</color>
        <scale>1</scale>
        <Icon>
          <href>https://www.gstatic.com/mapspro/images/stock/503-wht-blank_maps.png</href>
        </Icon>
      </IconStyle>
      <LabelStyle>
        <scale>1</scale>
      </LabelStyle>
      <BalloonStyle>
        <text><![CDATA[<h3>$[name]</h3>]]></text>
      </BalloonStyle>
    </Style>
    <StyleMap id="icon-1634-BDBDBD-nodesc">
      <Pair>
        <key>normal</key>
        <styleUrl>#icon-1634-BDBDBD-nodesc-normal</styleUrl>
      </Pair>
      <Pair>
        <key>highlight</key>
        <styleUrl>#icon-1634-BDBDBD-nodesc-highlight</styleUrl>
      </Pair>
    </StyleMap>
    <Style id="icon-1634-F9A825-nodesc-normal">
      <IconStyle>
        <color>ff25a8f9</color>
        <scale>1</scale>
        <Icon>
          <href>https://www.gstatic.com/mapspro/images/stock/503-wht-blank_maps.png</href>
        </Icon>
      </IconStyle>
      <LabelStyle>
        <scale>0</scale>
      </LabelStyle>
      <BalloonStyle>
        <text><![CDATA[<h3>$[name]</h3>]]></text>
      </BalloonStyle>
    </Style>
    <Style id="icon-1634-F9A825-nodesc-highlight">
      <IconStyle>
        <color>ff25a8f9</color>
        <scale>1</scale>
        <Icon>
          <href>https://www.gstatic.com/mapspro/images/stock/503-wht-blank_maps.png</href>
        </Icon>
      </IconStyle>
      <LabelStyle>
        <scale>1</scale>
      </LabelStyle>
      <BalloonStyle>
        <text><![CDATA[<h3>$[name]</h3>]]></text>
      </BalloonStyle>
    </Style>
    <StyleMap id="icon-1634-F9A825-nodesc">
      <Pair>
        <key>normal</key>
        <styleUrl>#icon-1634-F9A825-nodesc-normal</styleUrl>
      </Pair>
      <Pair>
        <key>highlight</key>
        <styleUrl>#icon-1634-F9A825-nodesc-highlight</styleUrl>
      </Pair>
    </StyleMap>
    <Style id="icon-1899-DB4436-nodesc-normal">
      <IconStyle>
        <color>ff3644db</color>
        <scale>1</scale>
        <Icon>
          <href>https://www.gstatic.com/mapspro/images/stock/503-wht-blank_maps.png</href>
        </Icon>
        <hotSpot x="32" xunits="pixels" y="64" yunits="insetPixels"/>
      </IconStyle>
      <LabelStyle>
        <scale>0</scale>
      </LabelStyle>
      <BalloonStyle>
        <text><![CDATA[<h3>$[name]</h3>]]></text>
      </BalloonStyle>
    </Style>
    <Style id="icon-1899-DB4436-nodesc-highlight">
      <IconStyle>
        <color>ff3644db</color>
        <scale>1</scale>
        <Icon>
          <href>https://www.gstatic.com/mapspro/images/stock/503-wht-blank_maps.png</href>
        </Icon>
        <hotSpot x="32" xunits="pixels" y="64" yunits="insetPixels"/>
      </IconStyle>
      <LabelStyle>
        <scale>1</scale>
      </LabelStyle>
      <BalloonStyle>
        <text><![CDATA[<h3>$[name]</h3>]]></text>
      </BalloonStyle>
    </Style>
    <StyleMap id="icon-1899-DB4436-nodesc">
      <Pair>
        <key>normal</key>
        <styleUrl>#icon-1899-DB4436-nodesc-normal</styleUrl>
      </Pair>
      <Pair>
        <key>highlight</key>
        <styleUrl>#icon-1899-DB4436-nodesc-highlight</styleUrl>
      </Pair>
    </StyleMap>
    <Style id="poly-F9A825-2000-77-nodesc-normal">
      <LineStyle>
        <color>ff25a8f9</color>
        <width>2</width>
      </LineStyle>
      <PolyStyle>
        <color>4d25a8f9</color>
        <fill>1</fill>
        <outline>1</outline>
      </PolyStyle>
      <BalloonStyle>
        <text><![CDATA[<h3>$[name]</h3>]]></text>
      </BalloonStyle>
    </Style>
    <Style id="poly-F9A825-2000-77-nodesc-highlight">
      <LineStyle>
        <color>ff25a8f9</color>
        <width>3</width>
      </LineStyle>
      <PolyStyle>
        <color>4d25a8f9</color>
        <fill>1</fill>
        <outline>1</outline>
      </PolyStyle>
      <BalloonStyle>
        <text><![CDATA[<h3>$[name]</h3>]]></text>
      </BalloonStyle>
    </Style>
    <StyleMap id="poly-F9A825-2000-77-nodesc">
      <Pair>
        <key>normal</key>
        <styleUrl>#poly-F9A825-2000-77-nodesc-normal</styleUrl>
      </Pair>
      <Pair>
        <key>highlight</key>
        <styleUrl>#poly-F9A825-2000-77-nodesc-highlight</styleUrl>
      </Pair>
    </StyleMap>
    <Style id="poly-FBC02D-2000-48-nodesc-normal">
      <LineStyle>
        <color>ff2dc0fb</color>
        <width>2</width>
      </LineStyle>
      <PolyStyle>
        <color>302dc0fb</color>
        <fill>1</fill>
        <outline>1</outline>
      </PolyStyle>
      <BalloonStyle>
        <text><![CDATA[<h3>$[name]</h3>]]></text>
      </BalloonStyle>
    </Style>
    <Style id="poly-FBC02D-2000-48-nodesc-highlight">
      <LineStyle>
        <color>ff2dc0fb</color>
        <width>3</width>
      </LineStyle>
      <PolyStyle>
        <color>302dc0fb</color>
        <fill>1</fill>
        <outline>1</outline>
      </PolyStyle>
      <BalloonStyle>
        <text><![CDATA[<h3>$[name]</h3>]]></text>
      </BalloonStyle>
    </Style>
    <StyleMap id="poly-FBC02D-2000-48-nodesc">
      <Pair>
        <key>normal</key>
        <styleUrl>#poly-FBC02D-2000-48-nodesc-normal</styleUrl>
      </Pair>
      <Pair>
        <key>highlight</key>
        <styleUrl>#poly-FBC02D-2000-48-nodesc-highlight</styleUrl>
      </Pair>
    </StyleMap>
    <Style id="poly-FBC02D-2000-77-nodesc-normal">
      <LineStyle>
        <color>ff2dc0fb</color>
        <width>2</width>
      </LineStyle>
      <PolyStyle>
        <color>4d2dc0fb</color>
        <fill>1</fill>
        <outline>1</outline>
      </PolyStyle>
      <BalloonStyle>
        <text><![CDATA[<h3>$[name]</h3>]]></text>
      </BalloonStyle>
    </Style>
    <Style id="poly-FBC02D-2000-77-nodesc-highlight">
      <LineStyle>
        <color>ff2dc0fb</color>
        <width>3</width>
      </LineStyle>
      <PolyStyle>
        <color>4d2dc0fb</color>
        <fill>1</fill>
        <outline>1</outline>
      </PolyStyle>
      <BalloonStyle>
        <text><![CDATA[<h3>$[name]</h3>]]></text>
      </BalloonStyle>
    </Style>
    <StyleMap id="poly-FBC02D-2000-77-nodesc">
      <Pair>
        <key>normal</key>
        <styleUrl>#poly-FBC02D-2000-77-nodesc-normal</styleUrl>
      </Pair>
      <Pair>
        <key>highlight</key>
        <styleUrl>#poly-FBC02D-2000-77-nodesc-highlight</styleUrl>
      </Pair>
    </StyleMap>
    <Folder>
      <name>BUCHANANS</name>
      <Placemark>
        <name>Buchanan Peaks</name>
        <styleUrl>#icon-1899-DB4436-nodesc</styleUrl>
        <Point>
          <coordinates>
            168.996878,-44.523564,0
          </coordinates>
        </Point>
      </Placemark>
      <Placemark>
        <name><![CDATA[Richardsons &
Charter Country]]></name>
        <styleUrl>#icon-1634-F9A825-nodesc</styleUrl>
        <Point>
          <coordinates>
            168.879267,-44.408917,0
          </coordinates>
        </Point>
      </Placemark>
      <Placemark>
        <name>BUCHANANS</name>
        <styleUrl>#poly-FBC02D-2000-48-nodesc</styleUrl>
        <Polygon>
          <outerBoundaryIs>
            <LinearRing>
              <tessellate>1</tessellate>
              <coordinates>
                168.862701,-44.370199,0
                168.853775,-44.385413,0
                168.839355,-44.41632,0
                168.823563,-44.443779,0
                168.819443,-44.465835,0
                168.827682,-44.479064,0
                168.854462,-44.484453,0
                168.873688,-44.485433,0
                168.888794,-44.49327,0
                168.905273,-44.51188,0
                168.913513,-44.520448,0
                168.91832,-44.530484,0
                168.925186,-44.561314,0
                168.934799,-44.58088,0
                168.993851,-44.581858,0
                169.049469,-44.544188,0
                169.065262,-44.51237,0
                169.072128,-44.487392,0
                169.040543,-44.466325,0
                169.00621,-44.436425,0
                168.971191,-44.41632,0
                168.935486,-44.385413,0
                168.950592,-44.34467,0
                168.956085,-44.316673,0
                168.985611,-44.305373,0
                169.034363,-44.286697,0
                169.049469,-44.272441,0
                169.047409,-44.252771,0
                169.01857,-44.262607,0
                168.975998,-44.280307,0
                168.934112,-44.291612,0
                168.881928,-44.285222,0
                168.873688,-44.344179,0
                168.862701,-44.370199,0
              </coordinates>
            </LinearRing>
          </outerBoundaryIs>
        </Polygon>
      </Placemark>
      <Placemark>
        <name>Mount Alta</name>
        <styleUrl>#icon-1899-DB4436-nodesc</styleUrl>
        <Point>
          <coordinates>
            168.9725,-44.503333,0
          </coordinates>
        </Point>
      </Placemark>
      <Placemark>
        <name>Triple Peak</name>
        <styleUrl>#icon-1899-DB4436-nodesc</styleUrl>
        <Point>
          <coordinates>
            168.933333,-44.483333,0
          </coordinates>
        </Point>
      </Placemark>
      <Placemark>
        <name>Dragonfly Peak</name>
        <styleUrl>#icon-1899-DB4436-nodesc</styleUrl>
        <Point>
          <coordinates>
            168.879267,-44.408917,0
          </coordinates>
        </Point>
      </Placemark>
      <Placemark>
        <name>Treble Cone</name>
        <styleUrl>#icon-1634-BDBDBD-nodesc</styleUrl>
        <Point>
          <coordinates>
            168.949815,-44.711988,0
          </coordinates>
        </Point>
      </Placemark>
    </Folder>
    <Folder>
      <name>South Harris</name>
      <Placemark>
        <name>Mount Cardrona</name>
        <styleUrl>#icon-1634-BDBDBD-nodesc</styleUrl>
        <Point>
          <coordinates>
            168.939167,-44.851667,0
          </coordinates>
        </Point>
      </Placemark>
      <Placemark>
        <name>Mount Hyde</name>
        <styleUrl>#icon-1899-DB4436-nodesc</styleUrl>
        <Point>
          <coordinates>
            168.799167,-44.754167,0
          </coordinates>
        </Point>
      </Placemark>
      <Placemark>
        <name>Black Peak</name>
        <styleUrl>#icon-1899-DB4436-nodesc</styleUrl>
        <Point>
          <coordinates>
            168.830833,-44.584167,0
          </coordinates>
        </Point>
      </Placemark>
      <Placemark>
        <name>Wānaka Base</name>
        <styleUrl>#icon-1899-DB4436-nodesc</styleUrl>
        <Point>
          <coordinates>
            169.136861,-44.677937,0
          </coordinates>
        </Point>
      </Placemark>
      <Placemark>
        <name>Aoraki / Mt.Cook Base</name>
        <styleUrl>#icon-1899-DB4436-nodesc</styleUrl>
        <Point>
          <coordinates>
            170.124273,-43.911245,0
          </coordinates>
        </Point>
      </Placemark>
      <Placemark>
        <name>Queenstown Base</name>
        <styleUrl>#icon-1899-DB4436-nodesc</styleUrl>
        <Point>
          <coordinates>
            168.700826,-45.019743,0
          </coordinates>
        </Point>
      </Placemark>
      <Placemark>
        <name>Coronet Peak</name>
        <styleUrl>#icon-1634-BDBDBD-nodesc</styleUrl>
        <Point>
          <coordinates>
            168.736272,-44.927165,0
          </coordinates>
        </Point>
      </Placemark>
      <Placemark>
        <name>Harris Mountain Block</name>
        <styleUrl>#poly-FBC02D-2000-77-nodesc</styleUrl>
        <Polygon>
          <outerBoundaryIs>
            <LinearRing>
              <tessellate>1</tessellate>
              <coordinates>
                168.725181,-44.914231,0
                168.779426,-44.905478,0
                168.794532,-44.893805,0
                168.826118,-44.889427,0
                168.835045,-44.872885,0
                168.815131,-44.864611,0
                168.843284,-44.831508,0
                168.832984,-44.814949,0
                168.806891,-44.802283,0
                168.815131,-44.778892,0
                168.83985,-44.743789,0
                168.828177,-44.737936,0
                168.828864,-44.724278,0
                168.843284,-44.708664,0
                168.84809,-44.680353,0
                168.832984,-44.690117,0
                168.81034,-44.686222,0
                168.771872,-44.688164,0
                168.719687,-44.686212,0
                168.721061,-44.704272,0
                168.727927,-44.740863,0
                168.745093,-44.763294,0
                168.749213,-44.772556,0
                168.7396,-44.803745,0
                168.716941,-44.834916,0
                168.686728,-44.850009,0
                168.675742,-44.873371,0
                168.675056,-44.885535,0
                168.683982,-44.893318,0
                168.698401,-44.914231,0
                168.725181,-44.914231,0
              </coordinates>
            </LinearRing>
          </outerBoundaryIs>
        </Polygon>
      </Placemark>
      <Placemark>
        <name>Vanguard Peak</name>
        <styleUrl>#icon-1899-DB4436-nodesc</styleUrl>
        <Point>
          <coordinates>
            168.7451,-44.8525,0
          </coordinates>
        </Point>
      </Placemark>
      <Placemark>
        <name>Motatapu Area</name>
        <styleUrl>#poly-FBC02D-2000-77-nodesc</styleUrl>
        <Polygon>
          <outerBoundaryIs>
            <LinearRing>
              <tessellate>1</tessellate>
              <coordinates>
                168.930805,-44.859151,0
                168.943165,-44.83067,0
                168.952778,-44.821417,0
                168.965138,-44.798522,0
                168.986765,-44.798037,0
                169.007023,-44.796573,0
                169.022816,-44.78634,0
                169.033459,-44.778787,0
                169.057835,-44.784878,0
                169.067448,-44.777079,0
                169.055088,-44.756604,0
                169.028309,-44.757579,0
                168.981617,-44.774155,0
                168.986424,-44.75953,0
                168.99123,-44.753191,0
                168.994664,-44.740999,0
                168.979557,-44.728805,0
                168.950032,-44.73222,0
                168.954838,-44.756604,0
                168.936985,-44.756117,0
                168.908146,-44.747584,0
                168.8848,-44.754898,0
                168.87656,-44.778054,0
                168.87862,-44.799253,0
                168.891667,-44.801932,0
                168.902653,-44.81265,0
                168.917072,-44.822391,0
                168.911237,-44.832618,0
                168.887547,-44.839922,0
                168.877247,-44.856717,0
                168.889607,-44.866452,0
                168.930805,-44.859151,0
              </coordinates>
            </LinearRing>
          </outerBoundaryIs>
        </Polygon>
      </Placemark>
      <Placemark>
        <name>Polygon 13</name>
        <styleUrl>#poly-FBC02D-2000-77-nodesc</styleUrl>
        <Polygon>
          <outerBoundaryIs>
            <LinearRing>
              <tessellate>1</tessellate>
              <coordinates>
                168.838108,-44.884698,0
                168.858021,-44.898319,0
                168.87862,-44.904155,0
                168.893727,-44.900751,0
                168.901966,-44.894914,0
                168.908833,-44.873994,0
                168.889607,-44.866452,0
                168.879994,-44.861828,0
                168.872441,-44.850632,0
                168.887547,-44.839922,0
                168.89922,-44.827262,0
                168.90128,-44.80924,0
                168.88686,-44.803881,0
                168.872441,-44.808266,0
                168.859394,-44.797547,0
                168.867634,-44.783416,0
                168.87862,-44.755629,0
                168.865574,-44.747339,0
                168.83985,-44.743789,0
                168.823689,-44.773667,0
                168.812702,-44.796573,0
                168.824375,-44.808266,0
                168.848408,-44.819956,0
                168.844975,-44.835053,0
                168.835362,-44.850632,0
                168.842915,-44.871561,0
                168.838108,-44.884698,0
              </coordinates>
            </LinearRing>
          </outerBoundaryIs>
        </Polygon>
      </Placemark>
      <Placemark>
        <name>Mount Motatapu</name>
        <styleUrl>#icon-1899-DB4436-nodesc</styleUrl>
        <Point>
          <coordinates>
            168.833333,-44.716667,0
          </coordinates>
        </Point>
      </Placemark>
      <Placemark>
        <name>End Peak</name>
        <styleUrl>#icon-1634-BDBDBD-nodesc</styleUrl>
        <Point>
          <coordinates>
            168.916667,-44.683333,0
          </coordinates>
        </Point>
      </Placemark>
      <Placemark>
        <name>Centaur Peaks</name>
        <styleUrl>#icon-1899-DB4436-nodesc</styleUrl>
        <Point>
          <coordinates>
            168.574167,-44.635833,0
          </coordinates>
        </Point>
      </Placemark>
    </Folder>
    <Folder>
      <name>North Harris</name>
      <Placemark>
        <name>North Harris</name>
        <styleUrl>#poly-FBC02D-2000-77-nodesc</styleUrl>
        <Polygon>
          <outerBoundaryIs>
            <LinearRing>
              <tessellate>1</tessellate>
              <coordinates>
                168.785611,-44.529519,0
                168.767082,-44.532944,0
                168.759533,-44.536857,0
                168.72177,-44.538564,0
                168.712852,-44.556411,0
                168.706327,-44.573277,0
                168.688821,-44.592583,0
                168.707189,-44.591113,0
                168.715253,-44.589032,0
                168.726748,-44.59966,0
                168.73413,-44.602591,0
                168.737216,-44.598429,0
                168.742356,-44.586694,0
                168.75196,-44.584011,0
                168.762594,-44.583287,0
                168.786965,-44.583534,0
                168.832105,-44.585744,0
                168.823009,-44.577189,0
                168.815803,-44.57426,0
                168.823708,-44.568885,0
                168.825089,-44.562536,0
                168.82714,-44.552756,0
                168.816492,-44.534898,0
                168.818549,-44.522909,0
                168.803753,-44.519914,0
                168.785611,-44.529519,0
              </coordinates>
            </LinearRing>
          </outerBoundaryIs>
        </Polygon>
      </Placemark>
      <Placemark>
        <name>Fog Peak</name>
        <styleUrl>#icon-1899-DB4436-nodesc</styleUrl>
        <Point>
          <coordinates>
            168.805,-44.523333,0
          </coordinates>
        </Point>
      </Placemark>
    </Folder>
    <Folder>
      <name>Richardsons</name>
      <Placemark>
        <name>Mount Ferguson</name>
        <styleUrl>#icon-1899-DB4436-nodesc</styleUrl>
        <Point>
          <coordinates>
            168.55,-44.666667,0
          </coordinates>
        </Point>
      </Placemark>
      <Placemark>
        <name>Richardson</name>
        <styleUrl>#poly-FBC02D-2000-77-nodesc</styleUrl>
        <MultiGeometry>
          <Polygon>
            <outerBoundaryIs>
              <LinearRing>
                <tessellate>1</tessellate>
                <coordinates>
                  168.56749,-44.526624,0
                  168.567833,-44.523441,0
                  168.563027,-44.522952,0
                  168.56749,-44.526624,0
                </coordinates>
              </LinearRing>
            </outerBoundaryIs>
          </Polygon>
          <Polygon>
            <outerBoundaryIs>
              <LinearRing>
                <tessellate>1</tessellate>
                <coordinates>
                  168.56749,-44.526624,0
                  168.55719,-44.523931,0
                  168.54586,-44.522952,0
                  168.537621,-44.520749,0
                  168.525948,-44.520259,0
                  168.517708,-44.51977,0
                  168.509125,-44.520504,0
                  168.488526,-44.523686,0
                  168.472046,-44.52491,0
                  168.459343,-44.528092,0
                  168.476852,-44.567485,0
                  168.45694,-44.57042,0
                  168.433594,-44.558434,0
                  168.389992,-44.62689,0
                  168.403471,-44.619132,0
                  168.416943,-44.625057,0
                  168.441662,-44.633242,0
                  168.437885,-44.682817,0
                  168.457798,-44.714908,0
                  168.458828,-44.730154,0
                  168.469643,-44.729179,0
                  168.479599,-44.716006,0
                  168.496765,-44.729179,0
                  168.491272,-44.748444,0
                  168.481577,-44.757341,0
                  168.444064,-44.794268,0
                  168.477577,-44.806019,0
                  168.533758,-44.808518,0
                  168.622554,-44.766788,0
                  168.554444,-44.670122,0
                  168.595299,-44.638862,0
                  168.574872,-44.563692,0
                  168.57264,-44.557945,0
                  168.56852,-44.547914,0
                  168.569891,-44.538019,0
                  168.57264,-44.534455,0
                  168.56749,-44.526624,0
                </coordinates>
              </LinearRing>
            </outerBoundaryIs>
          </Polygon>
        </MultiGeometry>
      </Placemark>
      <Placemark>
        <name>Charter Country</name>
        <styleUrl>#poly-F9A825-2000-77-nodesc</styleUrl>
        <Polygon>
          <outerBoundaryIs>
            <LinearRing>
              <tessellate>1</tessellate>
              <coordinates>
                168.604789,-44.727336,0
                168.622642,-44.717091,0
                168.620582,-44.702939,0
                168.635688,-44.693178,0
                168.605476,-44.68195,0
                168.58625,-44.68195,0
                168.578697,-44.678044,0
                168.599296,-44.675603,0
                168.604102,-44.67072,0
                168.585563,-44.658999,0
                168.605476,-44.655092,0
                168.632255,-44.64923,0
                168.636375,-44.643368,0
                168.617149,-44.634084,0
                168.599296,-44.627243,0
                168.617835,-44.622356,0
                168.625388,-44.611604,0
                168.591743,-44.593515,0
                168.587623,-44.580311,0
                168.615776,-44.576398,0
                168.624702,-44.582756,0
                168.631568,-44.588136,0
                168.638435,-44.582756,0
                168.638435,-44.573464,0
                168.659721,-44.568572,0
                168.659034,-44.556831,0
                168.655601,-44.546555,0
                168.671394,-44.53383,0
                168.683067,-44.520124,0
                168.634315,-44.483884,0
                168.573203,-44.513269,0
                168.573203,-44.552427,0
                168.595299,-44.638862,0
                168.556037,-44.674138,0
                168.604789,-44.727336,0
              </coordinates>
            </LinearRing>
          </outerBoundaryIs>
        </Polygon>
      </Placemark>
      <Placemark>
        <name>Mount Ansted</name>
        <styleUrl>#icon-1899-DB4436-nodesc</styleUrl>
        <Point>
          <coordinates>
            168.6,-44.533333,0
          </coordinates>
        </Point>
      </Placemark>
      <Placemark>
        <name>Mount Tyndall</name>
        <styleUrl>#icon-1899-DB4436-nodesc</styleUrl>
        <Point>
          <coordinates>
            168.65,-44.516667,0
          </coordinates>
        </Point>
      </Placemark>
      <Placemark>
        <name>Headlong Peak</name>
        <styleUrl>#icon-1899-DB4436-nodesc</styleUrl>
        <Point>
          <coordinates>
            168.5975,-44.54,0
          </coordinates>
        </Point>
      </Placemark>
    </Folder>
    <Folder>
      <name>Cecil Peak</name>
      <Placemark>
        <name>Cecil Peak</name>
        <styleUrl>#poly-FBC02D-2000-77-nodesc</styleUrl>
        <Polygon>
          <outerBoundaryIs>
            <LinearRing>
              <tessellate>1</tessellate>
              <coordinates>
                168.620439,-45.086066,0
                168.594346,-45.096488,0
                168.58542,-45.10812,0
                168.585763,-45.133314,0
                168.58439,-45.147118,0
                168.544908,-45.153413,0
                168.526712,-45.165034,0
                168.508859,-45.16939,0
                168.509202,-45.173989,0
                168.501992,-45.178346,0
                168.501649,-45.182944,0
                168.497872,-45.202541,0
                168.505426,-45.225518,0
                168.518128,-45.224309,0
                168.533578,-45.226001,0
                168.55864,-45.222616,0
                168.56379,-45.214152,0
                168.573747,-45.196977,0
                168.583703,-45.19238,0
                168.592115,-45.184154,0
                168.605676,-45.178104,0
                168.614259,-45.175441,0
                168.622498,-45.175441,0
                168.624902,-45.170117,0
                168.640695,-45.162855,0
                168.654428,-45.152203,0
                168.683267,-45.130408,0
                168.68361,-45.100608,0
                168.681207,-45.086066,0
                168.66713,-45.077096,0
                168.645501,-45.073702,0
                168.620439,-45.086066,0
              </coordinates>
            </LinearRing>
          </outerBoundaryIs>
        </Polygon>
      </Placemark>
      <Placemark>
        <name>Cecil Peak</name>
        <styleUrl>#icon-1899-DB4436-nodesc</styleUrl>
        <Point>
          <coordinates>
            168.629167,-45.109167,0
          </coordinates>
        </Point>
      </Placemark>
      <Placemark>
        <name>Cecil Peak Station</name>
        <styleUrl>#icon-1899-DB4436-nodesc</styleUrl>
        <Point>
          <coordinates>
            168.609508,-45.139612,0
          </coordinates>
        </Point>
      </Placemark>
    </Folder>
    <Folder>
      <name>Remarkables</name>
      <Placemark>
        <name>Remarkables</name>
        <styleUrl>#poly-FBC02D-2000-77-nodesc</styleUrl>
        <Polygon>
          <outerBoundaryIs>
            <LinearRing>
              <tessellate>1</tessellate>
              <coordinates>
                168.821251,-45.119764,0
                168.816101,-45.127637,0
                168.836014,-45.137326,0
                168.825371,-45.151855,0
                168.796532,-45.155728,0
                168.76323,-45.138294,0
                168.76941,-45.147798,0
                168.777649,-45.160691,0
                168.802012,-45.182405,0
                168.799622,-45.233632,0
                168.826058,-45.19542,0
                168.832573,-45.245899,0
                168.859704,-45.248501,0
                168.839447,-45.170011,0
                168.8573,-45.15476,0
                168.915665,-45.162507,0
                168.991539,-45.125215,0
                168.97506,-45.108862,0
                168.942616,-45.124367,0
                168.929226,-45.121945,0
                168.913948,-45.126305,0
                168.886826,-45.125336,0
                168.898327,-45.114314,0
                168.879444,-45.086687,0
                168.850777,-45.07008,0
                168.833782,-45.054803,0
                168.822624,-45.063412,0
                168.821251,-45.119764,0
              </coordinates>
            </LinearRing>
          </outerBoundaryIs>
        </Polygon>
      </Placemark>
      <Placemark>
        <name>Doolans</name>
        <styleUrl>#icon-1899-DB4436-nodesc</styleUrl>
        <Point>
          <coordinates>
            168.852957,-45.130033,0
          </coordinates>
        </Point>
      </Placemark>
      <Placemark>
        <name>Bear Ears</name>
        <styleUrl>#icon-1899-DB4436-nodesc</styleUrl>
        <Point>
          <coordinates>
            168.82894,-45.162481,0
          </coordinates>
        </Point>
      </Placemark>
      <Placemark>
        <name>Linz Loch Linnie</name>
        <styleUrl>#icon-1899-DB4436-nodesc</styleUrl>
        <Point>
          <coordinates>
            168.810744,-45.167564,0
          </coordinates>
        </Point>
      </Placemark>
      <Placemark>
        <name>Helicopter Ridge</name>
        <styleUrl>#icon-1899-DB4436-nodesc</styleUrl>
        <Point>
          <coordinates>
            168.863615,-45.119617,0
          </coordinates>
        </Point>
      </Placemark>
      <Placemark>
        <name>Remarkables Skifield Car Park</name>
        <styleUrl>#icon-1634-BDBDBD-nodesc</styleUrl>
        <Point>
          <coordinates>
            168.813558,-45.052596,0
          </coordinates>
        </Point>
      </Placemark>
    </Folder>
    <Folder>
      <name>Ben Ohaus</name>
      <Placemark>
        <name>Ben Ohau Range</name>
        <styleUrl>#icon-1634-F9A825-nodesc</styleUrl>
        <Point>
          <coordinates>
            170,-44,0
          </coordinates>
        </Point>
      </Placemark>
      <Placemark>
        <name>Ben Ohaus Range</name>
        <styleUrl>#poly-FBC02D-2000-77-nodesc</styleUrl>
        <Polygon>
          <outerBoundaryIs>
            <LinearRing>
              <tessellate>1</tessellate>
              <coordinates>
                170.008924,-43.949676,0
                169.996221,-43.951654,0
                169.982145,-43.961787,0
                169.969442,-43.966976,0
                169.959142,-43.97513,0
                169.957082,-43.990693,0
                169.939916,-44.004771,0
                169.934079,-44.028473,0
                169.92378,-44.053893,0
                169.925153,-44.067708,0
                169.947469,-44.077575,0
                169.989698,-44.078315,0
                170.010984,-44.075848,0
                170.038793,-44.070175,0
                170.047376,-44.064502,0
                170.056302,-44.052659,0
                170.067975,-44.039086,0
                170.082395,-44.029213,0
                170.086515,-44.016376,0
                170.097158,-44.015388,0
                170.105397,-43.986,0
                170.089948,-43.970435,0
                170.057332,-43.963022,0
                170.020253,-43.95808,0
                170.008237,-43.951654,0
                170.008924,-43.949676,0
              </coordinates>
            </LinearRing>
          </outerBoundaryIs>
        </Polygon>
      </Placemark>
    </Folder>
    <Folder>
      <name>Gammack</name>
      <Placemark>
        <name>Green Point Hut</name>
        <styleUrl>#icon-1634-F9A825-nodesc</styleUrl>
        <Point>
          <coordinates>
            170.239647,-43.790173,0
          </coordinates>
        </Point>
      </Placemark>
      <Placemark>
        <name>Gammack</name>
        <styleUrl>#poly-FBC02D-2000-77-nodesc</styleUrl>
        <Polygon>
          <outerBoundaryIs>
            <LinearRing>
              <tessellate>1</tessellate>
              <coordinates>
                170.216369,-43.702743,0
                170.215682,-43.706217,0
                170.18341,-43.754842,0
                170.186843,-43.830182,0
                170.337905,-43.886624,0
                170.445708,-43.8792,0
                170.493087,-43.826219,0
                170.513686,-43.732519,0
                170.49034,-43.682387,0
                170.429229,-43.66103,0
                170.27542,-43.672951,0
                170.216369,-43.702743,0
              </coordinates>
            </LinearRing>
          </outerBoundaryIs>
        </Polygon>
      </Placemark>
    </Folder>
    <Folder>
      <name>Naumann</name>
      <Placemark>
        <name>Naumann</name>
        <styleUrl>#poly-FBC02D-2000-77-nodesc</styleUrl>
        <Polygon>
          <outerBoundaryIs>
            <LinearRing>
              <tessellate>1</tessellate>
              <coordinates>
                169.86901,-43.971396,0
                169.84532,-43.974114,0
                169.83811,-43.985973,0
                169.831587,-43.99857,0
                169.781462,-44.012892,0
                169.762236,-44.03437,0
                169.785239,-44.063734,0
                169.868323,-44.08692,0
                169.896132,-44.057566,0
                169.907462,-44.022521,0
                169.926344,-44.003262,0
                169.928061,-43.981032,0
                169.927374,-43.966455,0
                169.893729,-43.960771,0
                169.86901,-43.971396,0
              </coordinates>
            </LinearRing>
          </outerBoundaryIs>
        </Polygon>
      </Placemark>
      <Placemark>
        <name>Mount Glenmary</name>
        <styleUrl>#icon-1634-F9A825-nodesc</styleUrl>
        <Point>
          <coordinates>
            169.878333,-43.976667,0
          </coordinates>
        </Point>
      </Placemark>
    </Folder>
  </Document>
</kml>
